{"fetched_at":"2026-04-24T06:08:26Z","count":3046,"tles":[{"name":"STARLINK-37221","line1":"1 68668U 26077G   26112.60167626 -.00745143  00000+0 -51406-2 0  9995","line2":"2 68668  97.2833 343.6720 0000752 345.3025  14.8219 15.76508606  1829","category":"Starlink"}]}